PROGRESS-MS 32          
1 65586U 25204A   26087.87455012  .00011057  00000+0  21128-3 0  9998
2 65586  51.6344 337.5169 0006219 244.1555 115.8792 15.48616916554502
